STARLINK-37251          
1 68514U 26068G   26198.42697853  .00007859  00000+0  24352-3 0  9993
2 68514  53.1557 244.1621 0000949  44.1850 315.9228 15.34393833 16847
STARLINK-36293          
1 68515U 26068H   26198.55093722  .00008376  00000+0  25874-3 0  9998
2 68515  53.1561 243.5018 0001425  71.4576 288.6581 15.34400056 16860
STARLINK-36290          
1 68516U 26068J   26198.38699955  .00008812  00000+0  27161-3 0  9996
2 68516  53.1586 243.8939 0001852  52.5829 307.5341 15.34402917 16849
STARLINK-36298          
1 68517U 26068K   26198.15380183  .00010370  00000+0  31746-3 0  9998
2 68517  53.1559 245.3047 0001306  91.4019 268.7133 15.34415519 16809
STARLINK-36857          
1 68518U 26068L   26197.41627106  .00009443  00000+0  29021-3 0  9998
2 68518  53.1571 248.5045 0000877 105.2313 254.8786 15.34406165 16694
STARLINK-36326          
1 68519U 26068M   26198.13908185  .00012017  00000+0  36622-3 0  9994
2 68519  53.1577 245.1971 0001221  82.2633 277.8508 15.34400451 16807
STARLINK-37126          
1 68520U 26068N   26198.38910332  .00009110  00000+0  28043-3 0  9998
2 68520  53.1575 243.9080 0001086  82.1218 277.9908 15.34399397 16846
STARLINK-36347          
1 68521U 26068P   26198.15226429  .00006886  00000+0  21477-3 0  9992
2 68521  53.1561 247.4010 0001112  76.7564 283.3562 15.34398294 16771
STARLINK-36322          
1 68522U 26068Q   26198.14118409  .00008275  00000+0  25574-3 0  9996
2 68522  53.1561 245.1982 0000971  84.3524 275.7589 15.34402050 16802
STARLINK-37208          
1 68523U 26068R   26198.50885280  .00007156  00000+0  22273-3 0  9995
2 68523  53.1587 243.2288 0000322 108.3940 251.7098 15.34396632 16861
STARLINK-36302          
1 68524U 26068S   26198.53831470  .00009366  00000+0  28800-3 0  9998
2 68524  53.1566 243.4231 0000996  91.0861 269.0256 15.34397312 16860
STARLINK-36311          
1 68525U 26068T   26198.21052709  .00007637  00000+0  23694-3 0  9999
2 68525  53.1557 244.9282 0001159 112.6268 247.4858 15.34400611 16816
STARLINK-37178          
1 68526U 26068U   26198.51336987  .00025779  00000+0  46975-3 0  9990
2 68526  53.1572 238.9846 0000683  97.8268 262.2819 15.49325722 16916
STARLINK-37248          
1 68527U 26068V   26198.14270408  .00008458  00000+0  26118-3 0  9997
2 68527  53.1559 243.0218 0001067  79.8768 280.2354 15.34399754 16839
STARLINK-37241          
1 68528U 26068W   26198.52414844  .00008583  00000+0  26489-3 0  9994
2 68528  53.1574 245.4579 0001771  61.0940 299.0240 15.34397643 16837
STARLINK-37244          
1 68529U 26068X   26198.41855976  .00006264  00000+0  19637-3 0  9999
2 68529  53.1556 244.0978 0000973  90.7319 269.3795 15.34397511 16848
STARLINK-36285          
1 68530U 26068Y   26198.13964242  .00013994  00000+0  42447-3 0  9990
2 68530  53.1580 247.3287 0001702  57.9585 302.1583 15.34403974 16771
STARLINK-36294          
1 68531U 26068Z   26198.14595118  .00010950  00000+0  33462-3 0  9990
2 68531  53.1575 247.3639 0001009  93.2380 266.8738 15.34411397 16779
STARLINK-36249          
1 68532U 26068AA  26198.15591120  .00008636  00000+0  26645-3 0  9994
2 68532  53.1561 245.3021 0001389  93.1313 266.9849 15.34398687 16808
STARLINK-36252          
1 68533U 26068AB  26198.54041138  .00008369  00000+0  25845-3 0  9991
2 68533  53.1565 243.4279 0000354  69.6691 290.4349 15.34409937 16869
STARLINK-36299          
1 68534U 26068AC  26198.41224595  .00004045  00000+0  13081-3 0  9994
2 68534  53.1564 244.0526 0000398  52.6236 307.4803 15.34392190 16840
STARLINK-37234          
1 68535U 26068AD  26198.51424350  .00026107  00000+0  47573-3 0  9993
2 68535  53.1573 238.9863 0000975  74.3291 285.7826 15.49318388 16925
STARLINK-37173          
1 68536U 26068AE  26198.51070050  .00030009  00000+0  54528-3 0  9992
2 68536  53.1571 238.9677 0000849  79.6152 280.4953 15.49323097 16927
STARLINK-37326          
1 68542U 26070A   26198.10511858  .00009147  00000+0  28153-3 0  9997
2 68542  53.1587 119.7064 0001388  80.6864 279.4295 15.34397791 16392
STARLINK-36308          
1 68543U 26070B   26198.16815107  .00018423  00000+0  55510-3 0  9992
2 68543  53.1586 119.3898 0000747 120.5401 239.5675 15.34396134 16403
STARLINK-37263          
1 68544U 26070C   26198.48962794  .00010840  00000+0  33142-3 0  9995
2 68544  53.1588 117.8442 0001545  86.6326 273.4854 15.34407984 16456
STARLINK-37289          
1 68545U 26070D   26198.49171426 -.00003917  00000+0 -10485-3 0  9995
2 68545  53.1602 117.8561 0002469  77.4915 282.6363 15.34392336 16455
STARLINK-37290          
1 68546U 26070E   26198.16184034  .00017436  00000+0  52606-3 0  9999
2 68546  53.1585 119.3386 0001671 110.5791 249.5391 15.34395621 16401
STARLINK-37245          
1 68547U 26070F   26198.74175131  .00014821  00000+0  44893-3 0  9996
2 68547  53.1577 116.5709 0001752  87.6684 272.4520 15.34398985 16490
STARLINK-37145          
1 68548U 26070G   26198.74596084 -.00319721  00000+0 -99420-2 0  9995
2 68548  53.1575 116.5991 0001543  46.8916 313.2215 15.34134340 16493
