OBJECT_NAME,OBJECT_ID,EPOCH,MEAN_MOTION,ECCENTRICITY,INCLINATION,RA_OF_ASC_NODE,ARG_OF_PERICENTER,MEAN_ANOMALY,EPHEMERIS_TYPE,CLASSIFICATION_TYPE,NORAD_CAT_ID,ELEMENT_SET_NO,REV_AT_EPOCH,BSTAR,MEAN_MOTION_DOT,MEAN_MOTION_DDOT
STARLINK-37251,2026-068G,2026-07-17T10:14:50.944992,15.34393833,.0000949,53.1557,244.1621,44.1850,315.9228,0,U,68514,999,1684,.24352E-3,.7859E-4,0
STARLINK-36293,2026-068H,2026-07-17T13:13:20.975808,15.34400056,.0001425,53.1561,243.5018,71.4576,288.6581,0,U,68515,999,1686,.25874E-3,.8376E-4,0
STARLINK-36290,2026-068J,2026-07-17T09:17:16.761120,15.34402917,.0001852,53.1586,243.8939,52.5829,307.5341,0,U,68516,999,1684,.27161E-3,.8812E-4,0
STARLINK-36298,2026-068K,2026-07-17T03:41:28.478112,15.34415519,.00013069,53.1559,245.3047,91.4019,268.7133,0,U,68517,999,1680,.31746468E-3,.1037E-3,0
STARLINK-36857,2026-068L,2026-07-16T09:59:25.819584,15.34406165,.0000877,53.1571,248.5045,105.2313,254.8786,0,U,68518,999,1669,.29021E-3,.9443E-4,0
STARLINK-36326,2026-068M,2026-07-17T03:20:16.671840,15.34400451,.00012217,53.1577,245.1971,82.2633,277.8508,0,U,68519,999,1680,.36621509E-3,.12017E-3,0
STARLINK-37126,2026-068N,2026-07-17T09:20:18.526848,15.34399397,.0001086,53.1575,243.9080,82.1218,277.9908,0,U,68520,999,1684,.28043E-3,.911E-4,0
STARLINK-36347,2026-068P,2026-07-17T03:39:15.634656,15.34398294,.00011121,53.1561,247.4010,76.7564,283.3562,0,U,68521,999,1677,.21476796E-3,.6886E-4,0
STARLINK-36322,2026-068Q,2026-07-17T03:23:18.305376,15.34402050,.00009717,53.1561,245.1982,84.3524,275.7589,0,U,68522,999,1680,.25574469E-3,.8275E-4,0
STARLINK-37208,2026-068R,2026-07-17T12:12:44.881920,15.34396632,.0000322,53.1587,243.2288,108.3940,251.7098,0,U,68523,999,1686,.22273E-3,.7156E-4,0
STARLINK-36302,2026-068S,2026-07-17T12:55:10.390080,15.34397312,.0000996,53.1566,243.4231,91.0861,269.0256,0,U,68524,999,1686,.288E-3,.9366E-4,0
STARLINK-36311,2026-068T,2026-07-17T05:03:09.540576,15.34400611,.00011593,53.1557,244.9282,112.6268,247.4858,0,U,68525,999,1681,.2369354E-3,.7637E-4,0
STARLINK-37178,2026-068U,2026-07-17T12:19:15.156768,15.49325722,.0000683,53.1572,238.9846,97.8268,262.2819,0,U,68526,999,1691,.46975E-3,.25779E-3,0
STARLINK-37248,2026-068V,2026-07-17T03:25:29.632512,15.34399754,.00010678,53.1559,243.0218,79.8768,280.2354,0,U,68527,999,1683,.26117975E-3,.8458E-4,0
STARLINK-37241,2026-068W,2026-07-17T12:34:46.425216,15.34397643,.0001771,53.1574,245.4579,61.0940,299.0240,0,U,68528,999,1683,.26489E-3,.8583E-4,0
STARLINK-37244,2026-068X,2026-07-17T10:02:43.563264,15.34397511,.0000973,53.1556,244.0978,90.7319,269.3795,0,U,68529,999,1684,.19637E-3,.6264E-4,0
STARLINK-36285,2026-068Y,2026-07-17T03:21:05.105088,15.34403974,.00017024,53.1580,247.3287,57.9585,302.1583,0,U,68530,999,1677,.42447067E-3,.13994E-3,0
STARLINK-36294,2026-068Z,2026-07-17T03:30:10.181952,15.34411397,.00010098,53.1575,247.3639,93.2380,266.8738,0,U,68531,999,1677,.33461722E-3,.1095E-3,0
STARLINK-36249,2026-068AA,2026-07-17T03:44:30.727680,15.34398687,.00013899,53.1561,245.3021,93.1313,266.9849,0,U,68532,999,1680,.26644743E-3,.8636E-4,0
STARLINK-36252,2026-068AB,2026-07-17T12:58:11.543232,15.34409937,.0000354,53.1565,243.4279,69.6691,290.4349,0,U,68533,999,1686,.25845E-3,.8369E-4,0
STARLINK-36299,2026-068AC,2026-07-17T09:53:38.050080,15.34392190,.0000398,53.1564,244.0526,52.6236,307.4803,0,U,68534,999,1684,.13081E-3,.4045E-4,0
STARLINK-37234,2026-068AD,2026-07-17T12:20:30.638400,15.49318388,.0000975,53.1573,238.9863,74.3291,285.7826,0,U,68535,999,1692,.47573E-3,.26107E-3,0
STARLINK-37173,2026-068AE,2026-07-17T12:15:24.523200,15.49323097,.0000849,53.1571,238.9677,79.6152,280.4953,0,U,68536,999,1692,.54528E-3,.30009E-3,0
STARLINK-37326,2026-070A,2026-07-17T02:31:22.245312,15.34397791,.0001388,53.1587,119.7064,80.6864,279.4295,0,U,68542,999,1639,.28153E-3,.9147E-4,0
STARLINK-36308,2026-070B,2026-07-17T04:02:08.252448,15.34396134,.00007478,53.1586,119.3898,120.5401,239.5675,0,U,68543,999,1640,.55510444E-3,.18423E-3,0
STARLINK-37263,2026-070C,2026-07-17T11:45:03.854016,15.34407984,.0001545,53.1588,117.8442,86.6326,273.4854,0,U,68544,999,1645,.33142E-3,.1084E-3,0
STARLINK-37289,2026-070D,2026-07-17T11:48:04.112064,15.34392336,.0002469,53.1602,117.8561,77.4915,282.6363,0,U,68545,999,1645,-.10485E-3,-.3917E-4,0
STARLINK-37290,2026-070E,2026-07-17T03:53:03.005376,15.34395621,.0001671,53.1585,119.3386,110.5791,249.5391,0,U,68546,999,1640,.52606116E-3,.17436E-3,0
STARLINK-37245,2026-070F,2026-07-17T17:48:07.313184,15.34398985,.0001752,53.1577,116.5709,87.6684,272.4520,0,U,68547,999,1649,.44893E-3,.14821E-3,0
STARLINK-37145,2026-070G,2026-07-17T17:54:11.016576,15.34134340,.0001543,53.1575,116.5991,46.8916,313.2215,0,U,68548,999,1649,-.9942E-2,-.319721E-2,0
